title,totalScore,reviewsCount,street,city,state,countryCode,website,phone,categoryName,url,latitude,longitude
the Baron,4.0,241,Boschstraat 127,Breda,,NL,http://www.debaron.eu/,+31 76 520 0022,Cannabis store,"https://www.google.com/maps/place/the+Baron/@51.5915047,4.784692,17z/data=!3m1!4b1!4m6!3m5!1s0x47c69f82031750b5:0x5aaee5132b4eb15!8m2!3d51.5915047!4d4.784692!16s%2Fg%2F1tcxcdwq?hl=en&entry=ttu",51.5915047,4.784692
Pax,4.0,145,Nijverheidssingel 8,Breda,,NL,,+31 76 521 3239,Cannabis store,"https://www.google.com/maps/place/Pax/@51.5905749,4.7660596,17z/data=!3m1!4b1!4m6!3m5!1s0x47c69f88d4811a93:0x3b08fe7e05f229a0!8m2!3d51.5905749!4d4.7660596!16s%2Fg%2F1tl8jy7l?hl=en&entry=ttu",51.5905749,4.7660596
Coffeeshop Paradise,4.0,400,Sint Annastraat 3,Breda,,NL,https://m.facebook.com/hetparadijsbreda/,+31 76 514 1417,Cannabis store,"https://www.google.com/maps/place/Coffeeshop+Paradise/@51.588682,4.778114,17z/data=!3m1!4b1!4m6!3m5!1s0x47c69f872c04c2fb:0x3787ea553529a70e!8m2!3d51.588682!4d4.778114!16s%2Fg%2F1tdwjqpl?hl=en&entry=ttu",51.588682,4.778114
Sky Coffeeshop,3.6,217,Haagweg 56,Breda,,NL,https://facebook.com/skybreda/?locale2=nl_NL,+31 76 889 6565,Cannabis store,"https://www.google.com/maps/place/Sky+Coffeeshop/@51.584424,4.760052,17z/data=!3m1!4b1!4m6!3m5!1s0x47c6a021ca9822c1:0x8089a3c047d0a705!8m2!3d51.584424!4d4.760052!16s%2Fg%2F1td171fk?hl=en&entry=ttu",51.584424,4.760052
The Cat,4.4,388,Marterring 1,Breda,,NL,,+31 76 514 7464,Cannabis store,"https://www.google.com/maps/place/The+Cat/@51.5870036,4.805232,17z/data=!3m1!4b1!4m6!3m5!1s0x47c69f6196ce42a7:0x824be07e2da15e09!8m2!3d51.5870036!4d4.805232!16s%2Fg%2F1tdwzrmj?hl=en&entry=ttu",51.5870036,4.805232
Coffeeshop Majestic,3.6,353,Boschstraat 154,Breda,,NL,,,Cannabis store,"https://www.google.com/maps/place/Coffeeshop+Majestic/@51.5911128,4.784184,17z/data=!3m1!4b1!4m6!3m5!1s0x47c69f81f404baeb:0xebae93d0a02e49d!8m2!3d51.5911128!4d4.784184!16s%2Fg%2F1tfrlk7q?hl=en&entry=ttu",51.5911128,4.784184
Purple Rain,3.8,612,Willemstraat 12,Breda,,NL,,,Cannabis store,"https://www.google.com/maps/place/Purple+Rain/@51.5934956,4.7798798,17z/data=!3m1!4b1!4m6!3m5!1s0x47c69f838f6bc107:0xdf6212a40b0ea201!8m2!3d51.5934956!4d4.7798798!16s%2Fg%2F1v_0hzrj?hl=en&entry=ttu",51.5934956,4.7798798
Fly'n'Hy,4.1,415,Houtmarkt 23,Breda,,NL,,+31 76 520 0519,Cannabis store,"https://www.google.com/maps/place/Fly'n'Hy/@51.5864117,4.7773425,17z/data=!3m1!4b1!4m6!3m5!1s0x47c69f875804a929:0x79027beabc52a592!8m2!3d51.5864117!4d4.7773425!16s%2Fg%2F11b7lflk3y?hl=en&entry=ttu",51.5864117,4.7773425
Flamingoos,4.5,16,Sint Janstraat 5,Breda,,NL,http://www.flamingoos.nl/,+31 6 14202750,Gay bar,"https://www.google.com/maps/place/Flamingoos/@51.587782,4.7771591,17z/data=!3m1!4b1!4m6!3m5!1s0x47c69f87382807ad:0x6d17b2450d5ea927!8m2!3d51.587782!4d4.7771591!16s%2Fg%2F1tfk_dyh?hl=en&entry=ttu",51.587782,4.7771591
Beach & Lounge club Spider “rooftop bar”,,0,Nieuwe Prinsenkade,Breda,,NL,,,Bar,"https://www.google.com/maps/place/Beach+%26+Lounge+club+Spider+%E2%80%9Crooftop+bar%E2%80%9D/@51.5913405,4.771589,17z/data=!3m1!4b1!4m6!3m5!1s0x47c69f2fae50e6a5:0x5c8c01a2c392141b!8m2!3d51.5913405!4d4.771589!16s%2Fg%2F11j658lbnt?hl=en&entry=ttu",51.5913405,4.771589
Café Bar 't Keteltje,4.1,40,Vismarktstraat 4,Breda,,NL,https://barhetketeltje.nl/,+31 6 44171962,Cafe,"https://www.google.com/maps/place/Caf%C3%A9+Bar+'t+Keteltje/@51.589547,4.774286,17z/data=!3m1!4b1!4m6!3m5!1s0x47c69f864eb3f397:0x8793052b7ea446e6!8m2!3d51.589547!4d4.774286!16s%2Fg%2F1tnsr48m?hl=en&entry=ttu",51.589547,4.774286
Whisky & Gin Breda,4.9,72,Nieuwe Ginnekenstraat 18,Breda,,NL,https://www.whiskyandgin.nl/,+31 76 887 4868,Bar,"https://www.google.com/maps/place/Whisky+%26+Gin+Breda/@51.58223,4.7768449,17z/data=!3m1!4b1!4m6!3m5!1s0x47c6a17e549b843f:0x7f12a5cbb15507c!8m2!3d51.58223!4d4.7768449!16s%2Fg%2F11h915bksc?hl=en&entry=ttu",51.58223,4.7768449
CocktailWorkz | Cocktail workshop Breda | Cocktailbar,5.0,3,Ginnekenweg 311A,Breda,,NL,https://cocktailworkz.nl/,+31 6 57663506,Cocktail bar,"https://www.google.com/maps/place/CocktailWorkz+%7C+Cocktail+workshop+Breda+%7C+Cocktailbar/@51.5692195,4.7844509,17z/data=!3m1!4b1!4m6!3m5!1s0x47c6a13855c50b2d:0xff4d5dbc7f86de54!8m2!3d51.5692195!4d4.7844509!16s%2Fg%2F11nwyq31h7?hl=en&entry=ttu",51.5692195,4.7844509
't Piggenhuis,4.6,101,Nieuwstraat 19,Breda,,NL,,+31 6 12476270,Bar,"https://www.google.com/maps/place/''t+Piggenhuis'/@51.5868306,4.7747643,17z/data=!3m1!4b1!4m6!3m5!1s0x47c69f8783d50bf7:0x1b0801ecee8d8442!8m2!3d51.5868306!4d4.7747643!16s%2Fg%2F1tfzr3qb?hl=en&entry=ttu",51.5868306,4.7747643
Wijnlokaal Breda,5.0,2,Wilhelminastraat 52,Breda,,NL,https://mijnwijncursus.nl/,+31 76 530 0013,Wine bar,"https://www.google.com/maps/place/Wijnlokaal+Breda/@51.5788666,4.7782332,17z/data=!3m1!4b1!4m6!3m5!1s0x47c6a02c36f45e09:0x492b12347762d23a!8m2!3d51.5788666!4d4.7782332!16s%2Fg%2F11b77pmc62?hl=en&entry=ttu",51.5788666,4.7782332
Inspire Coffee Company B.V.,4.4,398,Veemarktstraat 4,Breda,,NL,https://www.inspirebreda.nl/,+31 76 515 3272,Bar,"https://www.google.com/maps/place/Inspire+Coffee+Company+B.V./@51.5880551,4.7769361,17z/data=!3m1!4b1!4m6!3m5!1s0x47c69f873ddea367:0x26839603f4d88c61!8m2!3d51.5880551!4d4.7769361!16s%2Fg%2F1tg80pc_?hl=en&entry=ttu",51.5880551,4.7769361
LOLO Pizzabar (AVPN certified),4.6,128,Ginnekenmarkt 4,Breda,,NL,http://www.lolobreda.nl/,+31 6 21910735,Pizza restaurant,"https://www.google.com/maps/place/LOLO+Pizzabar+(AVPN+certified)/@51.5675513,4.7854813,17z/data=!3m1!4b1!4m6!3m5!1s0x47c6a14874cabf45:0xfc038b6acda04aa4!8m2!3d51.5675513!4d4.7854813!16s%2Fg%2F11mhvsphd2?hl=en&entry=ttu",51.5675513,4.7854813
De Feestfabriek,4.2,182,Visserstraat 7,Breda,,NL,,,Pub,"https://www.google.com/maps/place/De+Feestfabriek/@51.5886665,4.7730547,17z/data=!3m1!4b1!4m6!3m5!1s0x47c69f87cfd769fb:0x9707d2e6903ad306!8m2!3d51.5886665!4d4.7730547!16s%2Fg%2F11dxkbbm79?hl=en&entry=ttu",51.5886665,4.7730547
Holy Moly Club,4.5,595,Torenstraat 17,Breda,,NL,https://holymolybreda.nl/,+31 76 887 5765,Restaurant,"https://www.google.com/maps/place/Holy+Moly+Club/@51.5888,4.7746938,17z/data=!3m1!4b1!4m6!3m5!1s0x47c69fa55dc38f33:0x5dc37a553ce257f3!8m2!3d51.5888!4d4.7746938!16s%2Fg%2F11mw7f0__b?hl=en&entry=ttu",51.5888,4.7746938
Café Nassau,3.6,181,Vismarktstraat 5,Breda,,NL,https://www.cafenassaubreda.nl/,,Pub,"https://www.google.com/maps/place/Caf%C3%A9+Nassau/@51.5895981,4.7738621,17z/data=!3m1!4b1!4m6!3m5!1s0x47c69f8649e748dd:0x8c723db367826c02!8m2!3d51.5895981!4d4.7738621!16s%2Fg%2F11bykym608?hl=en&entry=ttu",51.5895981,4.7738621
Gastrobar de Markt,4.1,459,Veemarktstraat 2,Breda,,NL,http://www.demarktbreda.nl/,+31 76 521 5122,Mediterranean restaurant,"https://www.google.com/maps/place/Gastrobar+de+Markt/@51.5880556,4.7766667,17z/data=!3m1!4b1!4m6!3m5!1s0x47c69f8715db4571:0xae9e376f267312c2!8m2!3d51.5880556!4d4.7766667!16s%2Fg%2F1pp2vdrjg?hl=en&entry=ttu",51.5880556,4.7766667
EsPintxos,4.2,120,Grote Markt 50,Breda,,NL,http://espintxos.com/,+31 76 887 8810,Tapas bar,"https://www.google.com/maps/place/EsPintxos/@51.5891662,4.776198,17z/data=!3m1!4b1!4m6!3m5!1s0x47c69fc209230dd9:0x2d803f86642bb3!8m2!3d51.5891662!4d4.776198!16s%2Fg%2F11t34st913?hl=en&entry=ttu",51.5891662,4.776198
Café Panting Deer,4.3,300,Pasbaan 7,Breda,,NL,http://www.hijgendhert.nl/,+31 76 514 1988,Pub,"https://www.google.com/maps/place/Caf%C3%A9+Panting+Deer/@51.589546,4.781871,17z/data=!3m1!4b1!4m6!3m5!1s0x47c69f81081b385f:0x18cfe6ff26837e5c!8m2!3d51.589546!4d4.781871!16s%2Fg%2F1w97tm5q?hl=en&entry=ttu",51.589546,4.781871
Café De Vrachtwagen,4.0,51,Reigerstraat 15,Breda,,NL,http://www.facebook.com/devrachtwagen,,Pub,"https://www.google.com/maps/place/Caf%C3%A9+De+Vrachtwagen/@51.5892675,4.7746336,17z/data=!3m1!4b1!4m6!3m5!1s0x47c69f86528f6bcf:0x2262d434c83d6069!8m2!3d51.5892675!4d4.7746336!16s%2Fg%2F1tfqq50_?hl=en&entry=ttu",51.5892675,4.7746336
HuizeMonopoly,5.0,3,Mauritsstraat 10A,Breda,,NL,,,Bar,"https://www.google.com/maps/place/HuizeMonopoly/@51.5923333,4.7846471,17z/data=!3m1!4b1!4m6!3m5!1s0x47c69fe86d5b7103:0xdea8f4b2675dad26!8m2!3d51.5923333!4d4.7846471!16s%2Fg%2F11j69cf6xp?hl=en&entry=ttu",51.5923333,4.7846471
Club Danza,3.7,15,Visserstraat 10,Breda,,NL,,,Bar,"https://www.google.com/maps/place/Club+Danza/@51.5885347,4.7732068,17z/data=!3m1!4b1!4m6!3m5!1s0x47c69f87c5f80b43:0x4cd4e1c8fc09b0dd!8m2!3d51.5885347!4d4.7732068!16s%2Fg%2F11cn0k0w7z?hl=en&entry=ttu",51.5885347,4.7732068
El Patio Breda,4.1,235,Haven 7,Breda,,NL,http://www.laperlabreda.nl/,+31 76 522 2094,Spanish restaurant,"https://www.google.com/maps/place/El+Patio+Breda/@51.5888048,4.7722991,17z/data=!3m1!4b1!4m6!3m5!1s0x47c69f87d6f4bdf1:0xa7e81b87d2aa0659!8m2!3d51.5888048!4d4.7722991!16s%2Fg%2F11d_7hkdly?hl=en&entry=ttu",51.5888048,4.7722991
Proost,4.0,357,Vismarktstraat 20,Breda,,NL,https://www.proostinbreda.nl/,,Club,"https://www.google.com/maps/place/Proost/@51.5897391,4.7737928,17z/data=!3m1!4b1!4m6!3m5!1s0x47c69f8637c1f8bd:0x3de998be25d44d82!8m2!3d51.5897391!4d4.7737928!16s%2Fg%2F1ptx8lxrx?hl=en&entry=ttu",51.5897391,4.7737928
Wijnbar Petit Bardot,4.3,84,Van Coothplein 10,Breda,,NL,http://petitbardot.nl/,+31 76 888 3111,Wine bar,"https://www.google.com/maps/place/Wijnbar+Petit+Bardot/@51.5833175,4.7773831,17z/data=!3m1!4b1!4m6!3m5!1s0x47c6a0297db14e3f:0xfdc0debc9934995!8m2!3d51.5833175!4d4.7773831!16s%2Fg%2F11dzt3d37s?hl=en&entry=ttu",51.5833175,4.7773831
Geisha Lounge,4.0,1003,Havermarkt 21,Breda,,NL,http://www.geishalounge.nl/,+31 76 532 4805,Japanese restaurant,"https://www.google.com/maps/place/Geisha+Lounge/@51.5891355,4.773781,17z/data=!3m1!4b1!4m6!3m5!1s0x47c69f87b55749cf:0x5ce89d2be3316385!8m2!3d51.5891355!4d4.773781!16s%2Fg%2F11bwkj3z3k?hl=en&entry=ttu",51.5891355,4.773781
Cafe Bril Jantje,4.2,50,Havermarkt 6,Breda,,NL,http://www.cafebriljantje.nl/,,Bar,"https://www.google.com/maps/place/Cafe+Bril+Jantje/@51.589409,4.7738601,17z/data=!3m1!4b1!4m6!3m5!1s0x47c69f864a7996b1:0xf9845978047c4b07!8m2!3d51.589409!4d4.7738601!16s%2Fg%2F11f_bzr6z9?hl=en&entry=ttu",51.589409,4.7738601
Restaurant Colins - Breda,4.3,708,Ginnekenweg 24,Breda,,NL,http://www.colins.nu/,+31 76 210 3103,Bar & grill,"https://www.google.com/maps/place/Restaurant+Colins+-+Breda/@51.578092,4.779384,17z/data=!3m1!4b1!4m6!3m5!1s0x47c6a02dae86ab49:0xa277626dbbd242c2!8m2!3d51.578092!4d4.779384!16s%2Fg%2F11g8vy2_1l?hl=en&entry=ttu",51.578092,4.779384
Café Bruxelles,4.1,1198,Havermarkt 5,Breda,,NL,http://www.bruxelles.nl/,+31 76 521 5211,Pub,"https://www.google.com/maps/place/Caf%C3%A9+Bruxelles/@51.5891667,4.7738888,17z/data=!3m1!4b1!4m6!3m5!1s0x47c69f864b4abca5:0x649386a0ce4b3cb1!8m2!3d51.5891667!4d4.7738888!16s%2Fg%2F1tjz2l94?hl=en&entry=ttu",51.5891667,4.7738888
Wijnbar Pinot,4.7,233,Grote Markt 46,Breda,,NL,http://www.wijnbarpinot.nl/,+31 76 532 9077,Wine bar,"https://www.google.com/maps/place/Wijnbar+Pinot/@51.5890361,4.7762444,17z/data=!3m1!4b1!4m6!3m5!1s0x47c69f871d5375a9:0x134d2768fb4e97bf!8m2!3d51.5890361!4d4.7762444!16s%2Fg%2F11b6d860kx?hl=en&entry=ttu",51.5890361,4.7762444
Huissommelier,5.0,15,Dirk Hartogstraat 47,Breda,,NL,https://huissommelier.nl/,+31 6 55627935,Caterer,"https://www.google.com/maps/place/Huissommelier/@51.572063,4.756371,17z/data=!3m1!4b1!4m6!3m5!1s0x47c69f97c07eaf17:0xdfcb15f5e8cef8c6!8m2!3d51.572063!4d4.756371!16s%2Fg%2F11m9wycd9m?hl=en&entry=ttu",51.572063,4.756371
Tapasbar Plan B,4.3,428,Kasteelplein 2,Breda,,NL,http://www.tapasbarplanb.nl/,+31 6 28404394,Tapas bar,"https://www.google.com/maps/place/Tapasbar+Plan+B/@51.5897313,4.7764135,17z/data=!3m1!4b1!4m6!3m5!1s0x47c69f86e5634bf7:0xf308dc000e6371fe!8m2!3d51.5897313!4d4.7764135!16s%2Fg%2F1w0q_3nw?hl=en&entry=ttu",51.5897313,4.7764135
Captain Breda,3.8,279,Reigerstraat 22,Breda,,NL,http://www.dekapiteinbreda.nl/,+31 76 205 5127,Bar,"https://www.google.com/maps/place/Captain+Breda/@51.5894474,4.7750969,17z/data=!3m1!4b1!4m6!3m5!1s0x47c69f8656a00bf7:0x9aae79e7594cc1d4!8m2!3d51.5894474!4d4.7750969!16s%2Fg%2F11bwm7x0cq?hl=en&entry=ttu",51.5894474,4.7750969
Barbier Breda,4.3,205,Vismarktstraat 11,Breda,,NL,http://www.barbierbreda.nl/,+31 6 44940460,Restaurant,"https://www.google.com/maps/place/Barbier+Breda/@51.5896536,4.7736632,17z/data=!3m1!4b1!4m6!3m5!1s0x47c69f86365ad107:0xa0222a8669a75b9b!8m2!3d51.5896536!4d4.7736632!16s%2Fg%2F11h9zbbtlr?hl=en&entry=ttu",51.5896536,4.7736632
Café Buckets,3.8,13,Havermarkt 27,Breda,,NL,http://www.cafebuckets.nl/,,Bar,"https://www.google.com/maps/place/Caf%C3%A9+Buckets/@51.5890891,4.7734936,17z/data=!3m1!4b1!4m6!3m5!1s0x47c69f9a488d1ed1:0xaa6b86153a6b00d!8m2!3d51.5890891!4d4.7734936!16s%2Fg%2F11h4cq7606?hl=en&entry=ttu",51.5890891,4.7734936
shots Breda,3.9,219,Vismarktstraat 24,Breda,,NL,http://www.shots-breda.nl/,+31 6 23855950,Pub,"https://www.google.com/maps/place/shots+Breda/@51.5897821,4.773671,17z/data=!3m1!4b1!4m6!3m5!1s0x47c69f86379d9b01:0x837ab15807e49e36!8m2!3d51.5897821!4d4.773671!16s%2Fg%2F11btx13_mc?hl=en&entry=ttu",51.5897821,4.773671
De Botanist - Bar & Kitchen,4.4,602,Tolbrugstraat 19,Breda,,NL,https://www.debotanistbreda.nl/,+31 76 720 0010,Restaurant,"https://www.google.com/maps/place/De+Botanist+-+Bar+%26+Kitchen/@51.5882135,4.7715059,17z/data=!3m1!4b1!4m6!3m5!1s0x47c69f9816b3af61:0x77682f2f256c75e5!8m2!3d51.5882135!4d4.7715059!16s%2Fg%2F11g_z270ck?hl=en&entry=ttu",51.5882135,4.7715059
Borrel Bar Breda,4.3,88,Sint Janstraat 3,Breda,,NL,https://www.facebook.com/caferebelyellbreda,,Pub,"https://www.google.com/maps/place/Borrel+Bar+Breda/@51.5877026,4.7769915,17z/data=!3m1!4b1!4m6!3m5!1s0x47c69f87408357ab:0x715776837a924efc!8m2!3d51.5877026!4d4.7769915!16s%2Fg%2F11cmtwg7h_?hl=en&entry=ttu",51.5877026,4.7769915
Coyote Breda,3.8,266,Visserstraat 3,Breda,,NL,http://www.coyotebreda.nl/,+31 6 10846622,Bar,"https://www.google.com/maps/place/Coyote+Breda/@51.5884026,4.7729574,17z/data=!3m1!4b1!4m6!3m5!1s0x47c69f87c51b8b33:0x20d750c214daa183!8m2!3d51.5884026!4d4.7729574!16s%2Fg%2F11cn0kxg58?hl=en&entry=ttu",51.5884026,4.7729574
Old Dutch Sports Bar & Restaurant,4.1,640,Sint Janstraat 3A,Breda,,NL,http://olddutchbreda.nl/,+31 76 532 0592,American restaurant,"https://www.google.com/maps/place/Old+Dutch+Sports+Bar+%26+Restaurant/@51.587731,4.7770934,17z/data=!3m1!4b1!4m6!3m5!1s0x47c69f873f7e2715:0xd670e78f86a34cc8!8m2!3d51.587731!4d4.7770934!16s%2Fg%2F11c35x5_t3?hl=en&entry=ttu",51.587731,4.7770934
Bar Le Petit,4.6,80,Van Coothplein 4,Breda,,NL,,+31 6 81427410,Bar,"https://www.google.com/maps/place/Bar+Le+Petit/@51.583473,4.7779962,17z/data=!3m1!4b1!4m6!3m5!1s0x47c6a02bd4749b6f:0xa07ed0a6dca77362!8m2!3d51.583473!4d4.7779962!16s%2Fg%2F1tgp006b?hl=en&entry=ttu",51.583473,4.7779962
"THE Irish Pub, O'Mearas of Breda",4.5,784,Reigerstraat 6,Breda,,NL,https://m.facebook.com/omearas.breda/?locale2=nl_NL,,Irish pub,"https://www.google.com/maps/place/THE+Irish+Pub,+O'Mearas+of+Breda/@51.5894879,4.7758395,17z/data=!3m1!4b1!4m6!3m5!1s0x47c69f86fbe1d1b3:0x91a2f26aa24a8970!8m2!3d51.5894879!4d4.7758395!16s%2Fg%2F1tqt8wy_?hl=en&entry=ttu",51.5894879,4.7758395
Karaokebar Ameezing,4.1,241,Visserstraat 9,Breda,,NL,http://www.karaokebarameezing.nl/,microphones3,Bar,"https://www.google.com/maps/place/Karaokebar+Ameezing/@51.5887494,4.7731068,17z/data=!3m1!4b1!4m6!3m5!1s0x47c69f87cef74475:0x102aefc0ac5b55da!8m2!3d51.5887494!4d4.7731068!16s%2Fg%2F11b7rxkmgb?hl=en&entry=ttu",51.5887494,4.7731068
"Irish Pub Breda, Mad Molly's",4.7,399,Schoolstraat 6,Breda,,NL,http://www.madmollysirishpub.nl/,+31 76 889 3688,Irish pub,"https://www.google.com/maps/place/Irish+Pub+Breda,+Mad+Molly's/@51.589647,4.774489,17z/data=!3m1!4b1!4m6!3m5!1s0x47c69f864facfe2d:0x673cae3d915972a6!8m2!3d51.589647!4d4.774489!16s%2Fg%2F11bxjjj2lz?hl=en&entry=ttu",51.589647,4.774489
't Tapperijke,4.7,46,Grote Markt 61,Breda,,NL,,+31 76 521 5856,Bar,"https://www.google.com/maps/place/''t+Tapperijke'/@51.589309,4.7756864,17z/data=!3m1!4b1!4m6!3m5!1s0x47c69f86feec923d:0x7335081a5ddd9692!8m2!3d51.589309!4d4.7756864!16s%2Fg%2F1tdmp8cs?hl=en&entry=ttu",51.589309,4.7756864
BoulesBitesBar Breda,4.2,100,Nieuweweg 83,Breda,,NL,https://www.boulesbitesbar.nl/breda/,+31 76 700 2009,Bar,"https://www.google.com/maps/place/BoulesBitesBar+Breda/@51.5871686,4.7726029,17z/data=!3m1!4b1!4m6!3m5!1s0x47c69fa789baf631:0x6e45a39c8eb8f156!8m2!3d51.5871686!4d4.7726029!16s%2Fg%2F11k940xy0_?hl=en&entry=ttu",51.5871686,4.7726029
ESN Breda Bar,,0,Sint Janstraat 3A,Breda,,NL,,,Bar,"https://www.google.com/maps/place/ESN+Breda+Bar/@51.5878237,4.7770399,17z/data=!3m1!4b1!4m6!3m5!1s0x47c69fc3cf6e1d7b:0xe53bf6c0f9d4ff18!8m2!3d51.5878237!4d4.7770399!16s%2Fg%2F11tx6y9tpz?hl=en&entry=ttu",51.5878237,4.7770399
Venise Bar,4.0,27,Halstraat 30,Breda,,NL,http://venise-bar.nl/,+31 6 39548148,Gay bar,"https://www.google.com/maps/place/Venise+Bar/@51.5867013,4.7773026,17z/data=!3m1!4b1!4m6!3m5!1s0x47c69f875a37afab:0x5aaa39248c5b9beb!8m2!3d51.5867013!4d4.7773026!16s%2Fg%2F1hg50b5t8?hl=en&entry=ttu",51.5867013,4.7773026
Big Belly Bar & Garden,4.8,240,Prinsenkade 3,Breda,,NL,https://www.bigbellybar.nl/,+31 76 303 8776,Restaurant,"https://www.google.com/maps/place/Big+Belly+Bar+%26+Garden/@51.5887403,4.7712178,17z/data=!3m1!4b1!4m6!3m5!1s0x47c69ff2bbafb2a5:0xea1ea37aa08a257b!8m2!3d51.5887403!4d4.7712178!16s%2Fg%2F11hptbl3s_?hl=en&entry=ttu",51.5887403,4.7712178
Bar Copa,4.4,36,Kerkplein 3,Breda,,NL,http://www.barcopa.nl/,+31 76 562 1374,Bar,"https://www.google.com/maps/place/Bar+Copa/@51.5887503,4.7755342,17z/data=!3m1!4b1!4m6!3m5!1s0x47c69fd311d58235:0xb34351fda106a091!8m2!3d51.5887503!4d4.7755342!16s%2Fg%2F11rd4pmdcl?hl=en&entry=ttu",51.5887503,4.7755342
BAAI,4.3,508,Markkade 1AB,Breda,,NL,http://www.baaibreda.nl/,+31 76 700 2713,Bar,"https://www.google.com/maps/place/BAAI/@51.5933815,4.7709072,17z/data=!3m1!4b1!4m6!3m5!1s0x47c69fb1c144fc3f:0x63d17add2973fe87!8m2!3d51.5933815!4d4.7709072!16s%2Fg%2F11h45w6qqd?hl=en&entry=ttu",51.5933815,4.7709072
Los Olivos,4.5,193,Haagweg 431,Breda,,NL,http://www.losolivosbreda.nl/,+31 6 19861843,Tapas bar,"https://www.google.com/maps/place/Los+Olivos/@51.5776233,4.7404106,17z/data=!3m1!4b1!4m6!3m5!1s0x47c6a00586128d63:0x1d0d20e9c90818b0!8m2!3d51.5776233!4d4.7404106!16s%2Fg%2F11css6lk4w?hl=en&entry=ttu",51.5776233,4.7404106
Cranberry van de G,,0,"Achter-Emer, Weidehek 56",Breda,,NL,,+31 6 16324381,Wine store,"https://www.google.com/maps/place/Cranberry+van+de+G/@51.6158634,4.7592849,17z/data=!3m1!4b1!4m6!3m5!1s0x47c434a953d9b589:0x9c226c348852a28a!8m2!3d51.6158634!4d4.7592849!16s%2Fg%2F12hk71wvt?hl=en&entry=ttu",51.6158634,4.7592849
HEMA Breda Princenhage,4.2,109,Haagsemarkt 12,Breda,,NL,https://winkels.hema.nl/nl/breda/hema-breda-princenhage?y_source=1_MTU0NTcxOTItNzE1LWxvY2F0aW9uLndlYnNpdGU%3D,+31 76 515 6182,Department store,"https://www.google.com/maps/place/HEMA+Breda+Princenhage/@51.577428,4.7388023,17z/data=!3m1!4b1!4m6!3m5!1s0x47c6a00f580ad5a1:0xc48ac26138f18108!8m2!3d51.577428!4d4.7388023!16s%2Fg%2F1ptx0l7ss?hl=en&entry=ttu",51.577428,4.7388023
Flying Tiger Copenhagen,4.2,138,Karrestraat 6,Breda,,NL,https://flyingtiger.com/,,Gift shop,"https://www.google.com/maps/place/Flying+Tiger+Copenhagen/@51.5879324,4.7752803,17z/data=!3m1!4b1!4m6!3m5!1s0x47c69f870a8679db:0xaaee3df354eae54!8m2!3d51.5879324!4d4.7752803!16s%2Fg%2F11b61jkkz8?hl=en&entry=ttu",51.5879324,4.7752803
IKEA Breda,4.2,10477,Kruisweide 1,Breda,,NL,https://www.ikea.com/nl/nl/store/breda,+31 50 711 1267,Furniture store,"https://www.google.com/maps/place/IKEA+Breda/@51.5802927,4.7284744,17z/data=!3m1!4b1!4m6!3m5!1s0x47c41ffd00cb9fc7:0xb1a095dda0b83aad!8m2!3d51.5802927!4d4.7284744!16s%2Fg%2F1tscn519?hl=en&entry=ttu",51.5802927,4.7284744
Bever,4.1,451,Tolbrugstraat 7,Breda,,NL,https://www.bever.nl/winkels/breda.html,,Outdoor sports store,"https://www.google.com/maps/place/Bever/@51.5881538,4.7724795,17z/data=!3m1!4b1!4m6!3m5!1s0x47c69f87de9b2433:0x92afe34c678f2bb4!8m2!3d51.5881538!4d4.7724795!16s%2Fg%2F1tfsm60l?hl=en&entry=ttu",51.5881538,4.7724795
Jumbo,4.1,699,Cypresstraat 21,Breda,,NL,http://www.jumbo.com/winkels/jumbo-breda-cypresstraat,+31 76 531 5160,Supermarket,"https://www.google.com/maps/place/Jumbo/@51.5875883,4.7538306,17z/data=!3m1!4b1!4m6!3m5!1s0x47c69ff58fda28b5:0xf17457f865c97846!8m2!3d51.5875883!4d4.7538306!16s%2Fg%2F1q2w7dfkb?hl=en&entry=ttu",51.5875883,4.7538306
Jumbo Foodmarkt,4.4,4060,Rat Verleghstraat 4,Breda,,NL,http://www.jumbo.com/winkels/jumbo-breda-foodmarkt,+31 76 544 3160,Supermarket,"https://www.google.com/maps/place/Jumbo+Foodmarkt/@51.593948,4.748829,17z/data=!3m1!4b1!4m6!3m5!1s0x47c69ff0bfdbde55:0xf24f554d7166b485!8m2!3d51.593948!4d4.748829!16s%2Fg%2F12hkt3l3q?hl=en&entry=ttu",51.593948,4.748829
"420 Shop Online Headshop | bongs, grinders, pipes & vaporizers",4.8,49,Konijnenberg,Breda,,NL,https://420shop.nl/,+31 6 34848442,Store,"https://www.google.com/maps/place/420+Shop+Online+Headshop+%7C+bongs,+grinders,+pipes+%26+vaporizers/@51.6161041,4.7680807,17z/data=!3m1!4b1!4m6!3m5!1s0x47c69e240ddf3b1b:0x5b66cbd293afc99d!8m2!3d51.6161041!4d4.7680807!16s%2Fg%2F11dxntm02l?hl=en&entry=ttu",51.6161041,4.7680807
Frontaal Brewing Company,4.6,237,"De Faam, Liniestraat 31",Breda,,NL,https://frontaalbrewingcompany.com/,+31 76 785 4329,Brewery,"https://www.google.com/maps/place/Frontaal+Brewing+Company/@51.5971716,4.7850183,17z/data=!3m1!4b1!4m6!3m5!1s0x47c69f9ad4f3c019:0xac8e3517d74af39f!8m2!3d51.5971716!4d4.7850183!16s%2Fg%2F11btm7ngxw?hl=en&entry=ttu",51.5971716,4.7850183
Wijnkoperij La Persistance,4.3,12,Minervum 7374,Breda,,NL,http://www.lapersistance.nl/,+31 76 543 0036,Wine store,"https://www.google.com/maps/place/Wijnkoperij+La+Persistance/@51.5880151,4.8301013,17z/data=!3m1!4b1!4m6!3m5!1s0x47c69f547a9071b3:0x92369e8d68445e16!8m2!3d51.5880151!4d4.8301013!16s%2Fg%2F1tfcmkb_?hl=en&entry=ttu",51.5880151,4.8301013
Wijnkoperij De Loods,4.8,13,Ginnekenweg 354,Breda,,NL,https://www.wijnkoperijdeloods.nl/,+31 76 564 9430,Wine wholesaler and importer,"https://www.google.com/maps/place/Wijnkoperij+De+Loods/@51.5676991,4.7845129,17z/data=!3m1!4b1!4m6!3m5!1s0x47c6a1cb0012cc55:0x184bee7671e18568!8m2!3d51.5676991!4d4.7845129!16s%2Fg%2F1vknnlkj?hl=en&entry=ttu",51.5676991,4.7845129
Plaisir du Vin,5.0,7,Ginnekenmarkt 14,Breda,,NL,http://www.plaisirduvin.nl/,+31 6 83160554,Wine store,"https://www.google.com/maps/place/Plaisir+du+Vin/@51.5671886,4.7857066,17z/data=!3m1!4b1!4m6!3m5!1s0x47c6a1ca4ea034ad:0x3f505b9f3e672631!8m2!3d51.5671886!4d4.7857066!16s%2Fg%2F1tdq9t58?hl=en&entry=ttu",51.5671886,4.7857066
Polski Sklep Polish Deli,4.3,552,Haagweg 27B,Breda,,NL,,+31 76 532 8588,Grocery store,"https://www.google.com/maps/place/Polski+Sklep+Polish+Deli/@51.5840388,4.7602001,17z/data=!3m1!4b1!4m6!3m5!1s0x47c6a021b68cae23:0x90286ff50fa6a019!8m2!3d51.5840388!4d4.7602001!16s%2Fg%2F11cnq4jxx4?hl=en&entry=ttu",51.5840388,4.7602001
Wijnproeverij/wijncursus Passie voor Wijn Breda,4.9,44,Maaibeemd 73,Breda,,NL,https://www.passievoorwijnbreda.nl/,+31 6 28455403,Learning center,"https://www.google.com/maps/place/Wijnproeverij%2Fwijncursus+Passie+voor+Wijn+Breda/@51.6079348,4.7396444,17z/data=!3m1!4b1!4m6!3m5!1s0x47c69fe0619bb00b:0xb2d8ecfb1799790!8m2!3d51.6079348!4d4.7396444!16s%2Fg%2F11gfjw3h_d?hl=en&entry=ttu",51.6079348,4.7396444
GrieksWijnhuis,4.6,5,Reduitlaan 33,Breda,,NL,http://www.griekswijnhuis.nl/,+31 6 53324291,Wine store,"https://www.google.com/maps/place/Alcohol+store/@51.5906451,4.762866,17z/data=!3m1!4b1!4m2!3m1!1s0x47c416c15493861f:0x1202123fcce496e3?hl=en&entry=ttu",51.5906451,4.762866
Wijnhuis Oktober,4.8,59,Wilhelminastraat 52,Breda,,NL,https://www.wijnhuis-oktober.nl/,+31 76 521 8125,Wine store,"https://www.google.com/maps/place/Alcohol+store/@51.578867,4.778233,17z/data=!3m1!4b1!4m2!3m1!1s0x47c6a02c36f45e09:0xe6a3f74fadefb806?hl=en&entry=ttu",51.578867,4.778233
Grocery Day & Night,3.8,104,Concordiastraat 25,Breda,,NL,https://www.avondwinkelbreda.nl/,+31 76 522 5766,Grocery store,"https://www.google.com/maps/place/Alcohol+store/@51.5837698,4.776207,17z/data=!3m1!4b1!4m2!3m1!1s0x47c6a0299fe2ba3f:0x87574af863e94b78?hl=en&entry=ttu",51.5837698,4.776207
Proef.nl,5.0,3,Baronielaan 113,Breda,,NL,https://proef.nl/,+31 88 555 2999,Wine store,"https://www.google.com/maps/place/Alcohol+store/@51.5748167,4.7772777,17z/data=!3m1!4b1!4m2!3m1!1s0x47c6a03208c03aff:0x806b7be53411591f?hl=en&entry=ttu",51.5748167,4.7772777
Streken,4.8,58,Haagdijk 80,Breda,,NL,http://www.streken.nl/,+31 6 81976418,Beer store,"https://www.google.com/maps/place/Streken/@51.5877493,4.7692649,17z/data=!3m1!4b1!4m6!3m5!1s0x47c69f8836db06bb:0xa1d436d52e690120!8m2!3d51.5877493!4d4.7692649!16s%2Fg%2F11fxb57h2b?hl=en&entry=ttu",51.5877493,4.7692649
Wijnkoperij Dames Pellens,4.6,5,Graaf Hendrik III Laan 173,Breda,,NL,http://www.wijnkoperijdamespellens.nl/,+31 76 850 3333,Wine store,"https://www.google.com/maps/place/Wijnkoperij+Dames+Pellens/@51.5724726,4.7691014,17z/data=!3m1!4b1!4m6!3m5!1s0x47c6a1cbc94d03c9:0x156a7ae6283abef3!8m2!3d51.5724726!4d4.7691014!16s%2Fg%2F11q32xv_my?hl=en&entry=ttu",51.5724726,4.7691014
Wijnhoeve 't Peerdeke,5.0,2,Heilaarstraat 235,Breda,,NL,http://www.peerdeke.nl/,+31 76 514 9605,Wine store,"https://www.google.com/maps/place/Wijnhoeve+'t+Peerdeke/@51.5867729,4.7359262,17z/data=!3m1!4b1!4m6!3m5!1s0x47c6a00035f4c06b:0xa6c31028d7c857f0!8m2!3d51.5867729!4d4.7359262!16s%2Fg%2F1vzg1gcn?hl=en&entry=ttu",51.5867729,4.7359262
Silvinos,5.0,5,Naundorffstraat 7,Breda,,NL,http://www.silvinos.nl/,+31 6 20160793,Wine store,"https://www.google.com/maps/place/Silvinos/@51.5904976,4.8046441,17z/data=!3m1!4b1!4m6!3m5!1s0x8a453e88c7222851:0xb8a9924ab5b0dcb3!8m2!3d51.5904976!4d4.8046441!16s%2Fg%2F11scytwbw0?hl=en&entry=ttu",51.5904976,4.8046441
Wijnkunst.nl,4.9,11,Arenberglaan 104,Breda,,NL,https://wijnkunst.nl/,+31 6 28952875,Wine wholesaler and importer,"https://www.google.com/maps/place/Wijnkunst.nl/@51.6030005,4.7395563,17z/data=!3m1!4b1!4m6!3m5!1s0x47c69fe3ce4824b3:0xefa4b5d65d5da4a3!8m2!3d51.6030005!4d4.7395563!16s%2Fg%2F1tzly57j?hl=en&entry=ttu",51.6030005,4.7395563
Wijnkoperij Henri Bloem Breda,4.8,35,Ginnekenweg 47,Breda,,NL,https://www.henribloem.nl/henri-bloem-breda?utm_source=GMBlisting&utm_medium=organic,+31 76 515 5844,Wine store,"https://www.google.com/maps/place/Wijnkoperij+Henri+Bloem+Breda/@51.5775447,4.7806371,17z/data=!3m1!4b1!4m6!3m5!1s0x47c6a02d11e0ce9b:0xa5320d6c9a71b71d!8m2!3d51.5775447!4d4.7806371!16s%2Fg%2F1tt0qbbz?hl=en&entry=ttu",51.5775447,4.7806371
Vader Jacobs,4.9,8,Haagweg 407,Breda,,NL,https://www.vaderjacobs.nl/,+31 6 44336942,Store,"https://www.google.com/maps/place/Vader+Jacobs/@51.5779494,4.741222,17z/data=!3m1!4b1!4m6!3m5!1s0x47c6a172fa439475:0x1d7c25f4f8ac1209!8m2!3d51.5779494!4d4.741222!16s%2Fg%2F11q4hxcf7v?hl=en&entry=ttu",51.5779494,4.741222
Garondin,,0,Stationslaan 3-A14,Breda,,NL,http://garondin.nl/,+31 6 44790214,Wine store,"https://www.google.com/maps/place/Garondin/@51.5962296,4.7716262,17z/data=!3m1!4b1!4m6!3m5!1s0x47c41f2e8e1f9245:0xb9fc0810ce6f0f92!8m2!3d51.5962296!4d4.7716262!16s%2Fg%2F1tczpjl5?hl=en&entry=ttu",51.5962296,4.7716262
Bourgondische Bierkelder,5.0,9,Reigerstraat 24,Breda,,NL,http://www.bourgondischebierkelder.nl/,,Beer store,"https://www.google.com/maps/place/Bourgondische+Bierkelder/@51.5894479,4.7750608,17z/data=!3m1!4b1!4m6!3m5!1s0x47c69f8654028749:0xe42089b8a630b117!8m2!3d51.5894479!4d4.7750608!16s%2Fg%2F11j1hx9wfr?hl=en&entry=ttu",51.5894479,4.7750608
Bier Lokaal,4.8,99,Boschstraat 150,Breda,,NL,http://www.bier-lokaal.nl/,+31 6 48032137,Beer store,"https://www.google.com/maps/place/Bier+Lokaal/@51.5910365,4.7841524,17z/data=!3m1!4b1!4m6!3m5!1s0x47c69f93f719da83:0x56f7edb775710b84!8m2!3d51.5910365!4d4.7841524!16s%2Fg%2F11g1gp6mdm?hl=en&entry=ttu",51.5910365,4.7841524
Vanouds de Zwaan Wijnimporteurs,5.0,9,Goeseelsstraat 36 C,Breda,,NL,http://www.vanoudsdezwaan.nl/,+31 76 700 2490,Wine store,"https://www.google.com/maps/place/Vanouds+de+Zwaan+Wijnimporteurs/@51.5953465,4.7980709,17z/data=!3m1!4b1!4m6!3m5!1s0x47c69f4cb1c02713:0xa0275690a0a6628d!8m2!3d51.5953465!4d4.7980709!16s%2Fg%2F11fky81c39?hl=en&entry=ttu",51.5953465,4.7980709
"Slijterij en Wijnhuis ""de Vijver""",4.7,40,Koninginnestraat 114,Breda,,NL,https://wijnhuisdevijver.nl/,+31 76 514 3828,Liquor store,"https://www.google.com/maps/place/Slijterij+en+Wijnhuis+%22de+Vijver%22/@51.5804206,4.7849644,17z/data=!3m1!4b1!4m6!3m5!1s0x47c6a1d35c330a19:0x2db721f955332cd4!8m2!3d51.5804206!4d4.7849644!16s%2Fg%2F1tdgtm44?hl=en&entry=ttu",51.5804206,4.7849644
Gall & Gall Breda,4.6,59,Bisschopshoeve 6,Breda,,NL,https://www.gall.nl/,+31 76 587 0317,Liquor store,"https://www.google.com/maps/place/Gall+%26+Gall+Breda/@51.5889969,4.822015,17z/data=!3m1!4b1!4m6!3m5!1s0x47c69f599a6e30ef:0x935843e1de519639!8m2!3d51.5889969!4d4.822015!16s%2Fg%2F1v1vcdhy?hl=en&entry=ttu",51.5889969,4.822015
Druiventros - 123feestje Breda,4.6,109,Hoogeind 6,Breda,,NL,http://www.druiventros.com/,+31 76 521 0026,Liquor store,"https://www.google.com/maps/place/Druiventros+-+123feestje+Breda/@51.5904355,4.8065641,17z/data=!3m1!4b1!4m6!3m5!1s0x47c69f6134cf3555:0xb60f8669b0290e50!8m2!3d51.5904355!4d4.8065641!16s%2Fg%2F1tj49prg?hl=en&entry=ttu",51.5904355,4.8065641
The Beer House Breda,4.6,179,Van Goorstraat 5,Breda,,NL,https://www.hetbierhuis.nl/,+31 76 522 8394,Beer store,"https://www.google.com/maps/place/The+Beer+House+Breda/@51.582097,4.777974,17z/data=!3m1!4b1!4m6!3m5!1s0x47c6a02be67f63cf:0x41673a132b3d98de!8m2!3d51.582097!4d4.777974!16s%2Fg%2F1tm8d61j?hl=en&entry=ttu",51.582097,4.777974
Wij Proeven,,0,Ginnekenweg 47,Breda,,NL,https://wij-proeven.business.site/?utm_source=gmb&utm_medium=referral,+31 6 30662500,Wine store,"https://www.google.com/maps/place/Wij+Proeven/@51.5775424,4.7806225,17z/data=!3m1!4b1!4m6!3m5!1s0x47c6a1d4e62f97b5:0xabc824fd5ab1c4dd!8m2!3d51.5775424!4d4.7806225!16s%2Fg%2F11h_cbft68?hl=en&entry=ttu",51.5775424,4.7806225
Gall & Gall Valkeniersplein 9,4.3,104,Valkeniersplein 9,Breda,,NL,https://www.gall.nl/winkels/details/?storeId=6883,+31 76 564 0220,Liquor store,"https://www.google.com/maps/place/Gall+%26+Gall+Valkeniersplein+9/@51.5704322,4.7916167,17z/data=!3m1!4b1!4m6!3m5!1s0x47c6a1cf29a0f347:0xb4c44413087734ca!8m2!3d51.5704322!4d4.7916167!16s%2Fg%2F1ptyzr2k0?hl=en&entry=ttu",51.5704322,4.7916167
Gall & Gall Moerwijk 12,4.0,82,Moerwijk 12,Breda,,NL,https://www.gall.nl/winkels/details/?storeId=6988,+31 76 572 0233,Liquor store,"https://www.google.com/maps/place/Gall+%26+Gall+Moerwijk+12/@51.6077258,4.7896834,17z/data=!3m1!4b1!4m6!3m5!1s0x47c69f0ab8356ff7:0xbfb99ec9f337cbc7!8m2!3d51.6077258!4d4.7896834!16s%2Fg%2F1vy7ft29?hl=en&entry=ttu",51.6077258,4.7896834
Kris Je,4.0,1,,Breda,,NL,,,Beer store,"https://www.google.com/maps/place/Kris+Je/@51.5892968,4.7728385,17z/data=!3m1!4b1!4m6!3m5!1s0x47c69f86321e50bd:0x5485bf42ca5f8823!8m2!3d51.5892968!4d4.7728385!16s%2Fg%2F11fj10s_8l?hl=en&entry=ttu",51.5892968,4.7728385
De Biergondiër,,0,Grote Markt 13,Breda,,NL,http://www.debiergondier.nl/,+31 76 514 0074,Beer store,"https://www.google.com/maps/place/De+Biergondi%C3%ABr/@51.5877162,4.7762583,17z/data=!3m1!4b1!4m6!3m5!1s0x47c69f876cae9f53:0xe88a5c4bced0c706!8m2!3d51.5877162!4d4.7762583!16s%2Fg%2F11c564rzrv?hl=en&entry=ttu",51.5877162,4.7762583
Gall & Gall,4.1,22,Anna van Burenstraat 24,Breda,,NL,https://www.gall.nl/winkels/details/?storeId=1415,+31 76 572 0750,Liquor store,"https://www.google.com/maps/place/Gall+%26+Gall/@51.5965555,4.7822952,17z/data=!3m1!4b1!4m6!3m5!1s0x47c69f912089464f:0x7cb83ab6b9d8e0ed!8m2!3d51.5965555!4d4.7822952!16s%2Fg%2F11cs1kw191?hl=en&entry=ttu",51.5965555,4.7822952
Slijterij de Burcht Breda,4.5,59,De Burcht 4,Breda,,NL,https://www.slijterijdeburcht.nl/,+31 76 564 9364,Liquor store,"https://www.google.com/maps/place/Slijterij+de+Burcht+Breda/@51.5720767,4.8054809,17z/data=!3m1!4b1!4m6!3m5!1s0x47c6a1c2f692d483:0xc0b28e7c084de813!8m2!3d51.5720767!4d4.8054809!16s%2Fg%2F1tczd37v?hl=en&entry=ttu",51.5720767,4.8054809
Wijn-Champagnebar Njoy,2.0,1,Prinsenkade 12A,Breda,,NL,,,Liquor store,"https://www.google.com/maps/place/Wijn-Champagnebar+Njoy/@51.5897527,4.7721726,17z/data=!3m1!4b1!4m6!3m5!1s0x47c69f8882870dad:0x462f380fcfe4dd24!8m2!3d51.5897527!4d4.7721726!16s%2Fg%2F11gg6dkcgb?hl=en&entry=ttu",51.5897527,4.7721726
Gall & Gall Torenstraat 10,4.4,97,Torenstraat 10,Breda,,NL,https://www.gall.nl/winkels/details/breda-torenstraat-10,+31 76 533 9644,Liquor store,"https://www.google.com/maps/place/Gall+%26+Gall+Torenstraat+10/@51.5885391,4.7752488,17z/data=!3m1!4b1!4m6!3m5!1s0x47c69f0404b065d1:0x591cb28c02aba91c!8m2!3d51.5885391!4d4.7752488!16s%2Fg%2F1th48m61?hl=en&entry=ttu",51.5885391,4.7752488
Druiventros Heksenwiel,4.3,22,Heksenwaag 7,Breda,,NL,,+31 76 542 5000,Liquor store,"https://www.google.com/maps/place/Druiventros+Heksenwiel/@51.6232131,4.7438598,17z/data=!3m1!4b1!4m6!3m5!1s0x47c69fd6eb92ea87:0xcc20b33eda51ad0f!8m2!3d51.6232131!4d4.7438598!16s%2Fg%2F11b6dpygcp?hl=en&entry=ttu",51.6232131,4.7438598
Gall & Gall Pastoor Van Spaandonckstraat,4.2,39,Pastoor van Spaandonkstraat 46,Breda,,NL,https://www.gall.nl/winkels/details/?storeId=7140,+31 76 530 9730,Liquor store,"https://www.google.com/maps/place/Gall+%26+Gall+Pastoor+Van+Spaandonckstraat/@51.5782638,4.7391751,17z/data=!3m1!4b1!4m6!3m5!1s0x47c6a005efc3f54f:0x4aa353dbbdd4516c!8m2!3d51.5782638!4d4.7391751!16s%2Fg%2F1pty34j8t?hl=en&entry=ttu",51.5782638,4.7391751
Slijterij Spraakwater,4.8,100,Brabantplein 6,Breda,,NL,,+31 76 522 8300,Liquor store,"https://www.google.com/maps/place/Slijterij+Spraakwater/@51.5909022,4.7995944,17z/data=!3m1!4b1!4m6!3m5!1s0x47c69f64a0c75fa9:0x807d78645eb32283!8m2!3d51.5909022!4d4.7995944!16s%2Fg%2F1x5f9l0k?hl=en&entry=ttu",51.5909022,4.7995944
Slijterijen In Breda,,0,Pastoor van Spaandonkstraat 46,Breda,,NL,,,Liquor store,"https://www.google.com/maps/place/Slijterijen+In+Breda/@51.5782676,4.7392091,17z/data=!3m1!4b1!4m6!3m5!1s0x47c6a005ee9db725:0x4482d960c292ce03!8m2!3d51.5782676!4d4.7392091!16s%2Fg%2F11hzrs5nl4?hl=en&entry=ttu",51.5782676,4.7392091
Best Bottles,4.9,42,Graaf Hendrik III Plein 21-25,Breda,,NL,http://www.bestbottles.nl/,+31 76 850 1814,Wine store,"https://www.google.com/maps/place/Best+Bottles/@51.577675,4.7707791,17z/data=!3m1!4b1!4m6!3m5!1s0x47c69f9bf58d253f:0x3d21c2aa0cb06806!8m2!3d51.577675!4d4.7707791!16s%2Fg%2F11j1fhqjwg?hl=en&entry=ttu",51.577675,4.7707791
Gall & Gall Haagdijk 108,4.3,24,Haagdijk 108,Breda,,NL,https://www.gall.nl/winkels/details/?storeId=1424,+31 76 531 0255,Liquor store,"https://www.google.com/maps/place/Gall+%26+Gall+Haagdijk+108/@51.5875311,4.7688335,17z/data=!3m1!4b1!4m6!3m5!1s0x47c69f8832f8f241:0xbb80c8af6e8ef56f!8m2!3d51.5875311!4d4.7688335!16s%2Fg%2F11c1r744vj?hl=en&entry=ttu",51.5875311,4.7688335
La Barrique,4.7,96,Haagsemarkt 8,Breda,,NL,http://www.labarrique.nl/,+31 76 521 6946,Liquor store,"https://www.google.com/maps/place/La+Barrique/@51.5771493,4.7385612,17z/data=!3m1!4b1!4m6!3m5!1s0x47c6a00f57585317:0xcdf079162ba4ac45!8m2!3d51.5771493!4d4.7385612!16s%2Fg%2F1td_xtll?hl=en&entry=ttu",51.5771493,4.7385612
Slijterij Bottledeals avondwinkel,4.7,14,Haagdijk 12,Breda,,NL,,+31 6 48543106,Liquor store,"https://www.google.com/maps/place/Slijterij+Bottledeals+avondwinkel/@51.5885942,4.7705449,17z/data=!3m1!4b1!4m6!3m5!1s0x47c69fd4e6e48b21:0x4b2f258fdb7c81e7!8m2!3d51.5885942!4d4.7705449!16s%2Fg%2F11sb9gmbs8?hl=en&entry=ttu",51.5885942,4.7705449
Jumbo,4.0,1067,Belcrumweg 5-7,Breda,,NL,http://www.jumbo.com/winkels/jumbo-breda-belcrumweg,+31 76 573 3160,Supermarket,"https://www.google.com/maps/place/Jumbo/@51.5969066,4.7698767,17z/data=!3m1!4b1!4m6!3m5!1s0x47c69f8fd3a09c93:0xaa7a1efa40cca4c2!8m2!3d51.5969066!4d4.7698767!16s%2Fg%2F1tj1r8wr?hl=en&entry=ttu",51.5969066,4.7698767
Jumbo,4.0,552,Donk 4,Breda,,NL,http://www.jumbo.com/winkels/jumbo-breda-de-donk,+31 76 548 2160,Supermarket,"https://www.google.com/maps/place/Jumbo/@51.607124,4.7466752,17z/data=!3m1!4b1!4m6!3m5!1s0x47c69fe798927b9d:0x65b58e77ed99e01a!8m2!3d51.607124!4d4.7466752!16s%2Fg%2F1tglm3cb?hl=en&entry=ttu",51.607124,4.7466752
Jumbo,4.2,442,Heksenwaag 37,Breda,,NL,http://www.jumbo.com/winkels/jumbo-breda-heksenwaag,+31 76 303 3530,Supermarket,"https://www.google.com/maps/place/Jumbo/@51.622827,4.744883,17z/data=!3m1!4b1!4m6!3m5!1s0x47c69f28a49ffe6d:0x12cea7b4d3a2228d!8m2!3d51.622827!4d4.744883!16s%2Fg%2F11h1rb_zd9?hl=en&entry=ttu",51.622827,4.744883
AH Haagdijk,4.1,687,Haagdijk 108,Breda,,NL,https://www.ah.nl/winkel/albert-heijn/breda/haagdijk/1424?utm_source=google&utm_medium=organic&utm_campaign=GMB,+31 76 531 0255,Supermarket,"https://www.google.com/maps/place/AH+Haagdijk/@51.5875311,4.7688335,17z/data=!3m1!4b1!4m6!3m5!1s0x47c69f88325a39db:0x7d4dbf639d17b471!8m2!3d51.5875311!4d4.7688335!16s%2Fg%2F11b6dfvs3j?hl=en&entry=ttu",51.5875311,4.7688335
Jumbo,4.2,1002,Moerwijk 23,Breda,,NL,http://www.jumbo.com/winkels/jumbo-breda-moerwijk,+31 76 303 2980,Supermarket,"https://www.google.com/maps/place/Jumbo/@51.608923,4.789411,17z/data=!3m1!4b1!4m6!3m5!1s0x47c69f0d50c838f7:0x3d6866db2144ea64!8m2!3d51.608923!4d4.789411!16s%2Fg%2F11gr641p3n?hl=en&entry=ttu",51.608923,4.789411
Jumbo,4.2,622,De Burcht 20,Breda,,NL,http://www.jumbo.com/winkels/jumbo-breda-de-burcht,+31 76 565 4237,Supermarket,"https://www.google.com/maps/place/Jumbo/@51.572716,4.806992,17z/data=!3m1!4b1!4m6!3m5!1s0x47c6a1c29045df2d:0x18acedaa7e7bf807!8m2!3d51.572716!4d4.806992!16s%2Fg%2F11bz0b81bc?hl=en&entry=ttu",51.572716,4.806992
AH Bisschopshoeve,4.1,583,Bisschopshoeve 30,Breda,,NL,https://www.ah.nl/winkel/albert-heijn/breda/bisschopshoeve/1174?utm_source=google&utm_medium=organic&utm_campaign=GMB,+31 76 587 7044,Supermarket,"https://www.google.com/maps/place/AH+Bisschopshoeve/@51.5894478,4.8220723,17z/data=!3m1!4b1!4m6!3m5!1s0x47c69f598ef08ae1:0x4e051012216d5432!8m2!3d51.5894478!4d4.8220723!16s%2Fg%2F11b6d5bzgj?hl=en&entry=ttu",51.5894478,4.8220723
AH De Burcht,4.1,360,De Burcht 1,Breda,,NL,https://www.ah.nl/winkel/albert-heijn/breda/de-burcht/1005?utm_source=google&utm_medium=organic&utm_campaign=GMB,+31 76 565 4183,Supermarket,"https://www.google.com/maps/place/AH+De+Burcht/@51.572051,4.805232,17z/data=!3m1!4b1!4m6!3m5!1s0x47c6a1c2f8abb5cb:0x9283b453ef226f4d!8m2!3d51.572051!4d4.805232!16s%2Fg%2F1tnmqykp?hl=en&entry=ttu",51.572051,4.805232
AH Valkeniersplein,4.2,820,Valkeniersplein 2 b,Breda,,NL,https://www.ah.nl/winkel/albert-heijn/breda/valkeniersplein/1045?utm_source=google&utm_medium=organic&utm_campaign=GMB,+31 76 565 4380,Supermarket,"https://www.google.com/maps/place/AH+Valkeniersplein/@51.5699848,4.791347,17z/data=!3m1!4b1!4m6!3m5!1s0x47c6a1c92ab0621d:0x4b6879dc15886886!8m2!3d51.5699848!4d4.791347!16s%2Fg%2F1260_nbhm?hl=en&entry=ttu",51.5699848,4.791347
AH Past van Spaandonkstraat,4.1,443,Pastoor van Spaandonkstraat 48,Breda,,NL,https://www.ah.nl/winkel/albert-heijn/breda/past-van-spaandonkstraat/1387?utm_source=google&utm_medium=organic&utm_campaign=GMB,+31 76 531 9393,Supermarket,"https://www.google.com/maps/place/AH+Past+van+Spaandonkstraat/@51.5783393,4.7394328,17z/data=!3m1!4b1!4m6!3m5!1s0x47c6a005ee337c6b:0x6a579dafade0cdc0!8m2!3d51.5783393!4d4.7394328!16s%2Fg%2F1w0h6qwz?hl=en&entry=ttu",51.5783393,4.7394328
Jumbo,3.9,907,Doctor Struyckenstraat 60,Breda,,NL,http://www.jumbo.com/winkels/jumbo-breda-dr-struyckenplein,+31 76 531 7160,Supermarket,"https://www.google.com/maps/place/Jumbo/@51.5768363,4.756015,17z/data=!3m1!4b1!4m6!3m5!1s0x47c6a023a41d5a5f:0x885380bb75f35e1d!8m2!3d51.5768363!4d4.756015!16s%2Fg%2F1q2wbjngv?hl=en&entry=ttu",51.5768363,4.756015
AH Brabantplein,4.0,908,Brabantplein 24,Breda,,NL,https://www.ah.nl/winkel/albert-heijn/breda/brabantplein/1382?utm_source=google&utm_medium=organic&utm_campaign=GMB,+31 76 531 0300,Supermarket,"https://www.google.com/maps/place/AH+Brabantplein/@51.5906879,4.8004625,17z/data=!3m1!4b1!4m6!3m5!1s0x47c69f649d530b6d:0x7115e45989207d4f!8m2!3d51.5906879!4d4.8004625!16s%2Fg%2F1tf_mj91?hl=en&entry=ttu",51.5906879,4.8004625
AH Nieuwstraat,4.1,615,Nieuwstraat 45,Breda,,NL,https://www.ah.nl/winkel/albert-heijn/breda/nieuwstraat/1029?utm_source=google&utm_medium=organic&utm_campaign=GMB,+31 76 520 7171,Supermarket,"https://www.google.com/maps/place/AH+Nieuwstraat/@51.5877438,4.7729257,17z/data=!3m1!4b1!4m6!3m5!1s0x47c69f87e9046397:0x85a29e7795bb026a!8m2!3d51.5877438!4d4.7729257!16s%2Fg%2F1tkc1b0h?hl=en&entry=ttu",51.5877438,4.7729257
AH Anna van Burenstraat,4.2,763,Anna van Burenstraat 24,Breda,,NL,https://www.ah.nl/winkel/albert-heijn/breda/crogtdijk/1415?utm_source=google&utm_medium=organic&utm_campaign=GMB,+31 76 572 0750,Supermarket,"https://www.google.com/maps/place/AH+Anna+van+Burenstraat/@51.5965613,4.782032,17z/data=!3m1!4b1!4m6!3m5!1s0x47c69f9126eed127:0x3848872f60a3e95f!8m2!3d51.5965613!4d4.782032!16s%2Fg%2F11btm9_vd2?hl=en&entry=ttu",51.5965613,4.782032
AH Ginnekenweg,4.1,547,Ginnekenweg 46,Breda,,NL,https://www.ah.nl/winkel/albert-heijn/breda/ginnekenweg/1808?utm_source=google&utm_medium=organic&utm_campaign=GMB,+31 76 514 8719,Supermarket,"https://www.google.com/maps/place/AH+Ginnekenweg/@51.5773992,4.7802866,17z/data=!3m1!4b1!4m6!3m5!1s0x47c6a02d0da27437:0x8956ab2139805802!8m2!3d51.5773992!4d4.7802866!16s%2Fg%2F1tcx0rb4?hl=en&entry=ttu",51.5773992,4.7802866
AH Oude Vest,4.0,928,Oude Vest 5,Breda,,NL,https://www.ah.nl/winkel/albert-heijn/breda/oude-vest/1651?utm_source=google&utm_medium=organic&utm_campaign=GMB,+31 76 513 8415,Supermarket,"https://www.google.com/maps/place/AH+Oude+Vest/@51.5866667,4.7783333,17z/data=!3m1!4b1!4m6!3m5!1s0x47c69f80ae59d7df:0x7d665a173106846d!8m2!3d51.5866667!4d4.7783333!16s%2Fg%2F1262g02zz?hl=en&entry=ttu",51.5866667,4.7783333
"Online smartshop - bong, wiet grinder, weegschaal, truffels, cbd, microdosing - Pinda papers",3.4,9,Tuinbouwveilingweg 5c19,Breda,,NL,https://www.pindapapers.nl/,+31 6 42598658,Smart shop,"https://www.google.com/maps/place/Online+smartshop+-+bong,+wiet+grinder,+weegschaal,+truffels,+cbd,+microdosing+-+Pinda+papers/@51.5899821,4.7357618,17z/data=!3m1!4b1!4m6!3m5!1s0x47c69f2502ff1f35:0x2ac7bdd35e8c4faa!8m2!3d51.5899821!4d4.7357618!16s%2Fg%2F11p5qnbr57?hl=en&entry=ttu",51.5899821,4.7357618
Healthy Smart Store Dreamvalley,4.1,39,Nieuwe Haagdijk 69,Breda,,NL,http://www.dreamvalley.nl/,+31 76 522 4030,Smart shop,"https://www.google.com/maps/place/Healthy+Smart+Store+Dreamvalley/@51.5859137,4.7640499,17z/data=!3m1!4b1!4m6!3m5!1s0x47c6a020b956f19b:0xa2f0ab753608d72f!8m2!3d51.5859137!4d4.7640499!16s%2Fg%2F1td2g3py?hl=en&entry=ttu",51.5859137,4.7640499
Smartshop Lafumette,4.6,47,Haagweg 14,Breda,,NL,http://la-fumette.nl/,+31 6 24555262,Smart shop,"https://www.google.com/maps/place/Smartshop+Lafumette/@51.5853726,4.7619797,17z/data=!3m1!4b1!4m6!3m5!1s0x47c6a020f4347533:0x7c032bcc9cfdd51b!8m2!3d51.5853726!4d4.7619797!16s%2Fg%2F1thvxh5m?hl=en&entry=ttu",51.5853726,4.7619797
Smart-vitamins.nl,,0,Minervum 7158 A,Breda,,NL,https://www.smart-vitamins.nl/,,Vitamin & supplements store,"https://www.google.com/maps/place/Smart-vitamins.nl/@51.5897742,4.8371217,17z/data=!3m1!4b1!4m6!3m5!1s0x47c699703835723b:0x1d8509c9dae35bab!8m2!3d51.5897742!4d4.8371217!16s%2Fg%2F11hhdyx6_l?hl=en&entry=ttu",51.5897742,4.8371217
Peddels,4.0,247,Havermarkt 8,Breda,,NL,http://www.peddels-breda.nl/,+31 76 889 7271,Bar,"https://www.google.com/maps/place/Peddels/@51.5893264,4.7737781,17z/data=!3m1!4b1!4m6!3m5!1s0x47c69f864a7e4cf7:0xc950925e2a0d6e7d!8m2!3d51.5893264!4d4.7737781!16s%2Fg%2F1tf19zkv?hl=en&entry=ttu",51.5893264,4.7737781
Tapasbar Hacienda,4.6,198,Baronielaan 320,Breda,,NL,http://www.tapasbarhacienda.nl/,+31 76 532 0184,Tapas bar,"https://www.google.com/maps/place/Tapasbar+Hacienda/@51.567373,4.7761764,17z/data=!3m1!4b1!4m6!3m5!1s0x47c6a035c89816b3:0xc4613a033edda443!8m2!3d51.567373!4d4.7761764!16s%2Fg%2F11gh04l5dn?hl=en&entry=ttu",51.567373,4.7761764
